start=new Date('2023-03-02T00:00:00.000Z').valueOf();
sats=[{"FILE":"3848834","CENTER_NAME":"EARTH","EPOCH":"2023-03-01T07:01:10.799904","SEMIMAJOR_AXIS":"6737.279","GP_ID":"227322181","APOAPSIS":"361.083","TLE_LINE2":"2 55427  69.9997   9.2827 0002879 252.8290 107.2591 15.69914491  5634","ECCENTRICITY":"0.00028790","TLE_LINE1":"1 55427U 23014AN  23060.29248611  .00001046  00000-0  10468-4 0  9991","MEAN_MOTION_DDOT":"0.0000000000000","INCLINATION":"69.9997","OBJECT_TYPE":"PAYLOAD","LAUNCH_DATE":"2023-01-31","BSTAR":"0.00001046800000","PERIAPSIS":"357.204","REV_AT_EPOCH":"563","REF_FRAME":"TEME","RA_OF_ASC_NODE":"9.2827","NORAD_CAT_ID":"55427","OBJECT_ID":"2023-014AN","CLASSIFICATION_TYPE":"U","ELEMENT_SET_NO":"999","OBJECT_NAME":"STARLINK-5073","MEAN_MOTION_DOT":"0.00001046","MEAN_MOTION":"15.69914491","DECAY_DATE":null,"MEAN_ELEMENT_THEORY":"SGP4","EPHEMERIS_TYPE":"0","PERIOD":"91.725","COUNTRY_CODE":"US","SITE":"AFWTR","ARG_OF_PERICENTER":"252.8290","RCS_SIZE":"LARGE","MEAN_ANOMALY":"107.2591","TIME_SYSTEM":"UTC"},{"EPHEMERIS_TYPE":"0","MEAN_MOTION":"15.69924966","DECAY_DATE":null,"MEAN_ELEMENT_THEORY":"SGP4","ELEMENT_SET_NO":"999","OBJECT_NAME":"STARLINK-5064","MEAN_MOTION_DOT":"0.00008556","REV_AT_EPOCH":"563","RA_OF_ASC_NODE":"9.2858","REF_FRAME":"TEME","NORAD_CAT_ID":"55428","OBJECT_ID":"2023-014AP","CLASSIFICATION_TYPE":"U","RCS_SIZE":"LARGE","MEAN_ANOMALY":"131.0014","TIME_SYSTEM":"UTC","ARG_OF_PERICENTER":"229.0917","SITE":"AFWTR","PERIOD":"91.724","COUNTRY_CODE":"US","APOAPSIS":"361.173","TLE_LINE2":"2 55428  70.0003   9.2858 0003057 229.0917 131.0014 15.69924966  5634","ECCENTRICITY":"0.00030570","TLE_LINE1":"1 55428U 23014AP  23060.29311599  .00008556  00000-0  72853-4 0  9997","GP_ID":"227322928","SEMIMAJOR_AXIS":"6737.249","FILE":"3848834","CENTER_NAME":"EARTH","EPOCH":"2023-03-01T07:02:05.221536","OBJECT_TYPE":"PAYLOAD","LAUNCH_DATE":"2023-01-31","BSTAR":"0.00007285300000","PERIAPSIS":"357.054","INCLINATION":"70.0003","MEAN_MOTION_DDOT":"0.0000000000000"},{"GP_ID":"227321680","TLE_LINE1":"1 55429U 23014AQ  23060.86624326  .00021860  00000-0  18280-3 0  9992","TLE_LINE2":"2 55429  69.9994   7.6716 0003254 262.4397  97.6429 15.69963516  5729","APOAPSIS":"361.196","ECCENTRICITY":"0.00032540","CENTER_NAME":"EARTH","FILE":"3848834","EPOCH":"2023-03-01T20:47:23.417664","SEMIMAJOR_AXIS":"6737.138","LAUNCH_DATE":"2023-01-31","OBJECT_TYPE":"PAYLOAD","PERIAPSIS":"356.811","BSTAR":"0.00018280000000","MEAN_MOTION_DDOT":"0.0000000000000","INCLINATION":"69.9994","MEAN_MOTION":"15.69963516","DECAY_DATE":null,"MEAN_ELEMENT_THEORY":"SGP4","EPHEMERIS_TYPE":"0","REV_AT_EPOCH":"572","OBJECT_ID":"2023-014AQ","CLASSIFICATION_TYPE":"U","NORAD_CAT_ID":"55429","RA_OF_ASC_NODE":"7.6716","REF_FRAME":"TEME","OBJECT_NAME":"STARLINK-5645","ELEMENT_SET_NO":"999","MEAN_MOTION_DOT":"0.00021860","ARG_OF_PERICENTER":"262.4397","SITE":"AFWTR","MEAN_ANOMALY":"97.6429","RCS_SIZE":"LARGE","TIME_SYSTEM":"UTC","PERIOD":"91.722","COUNTRY_CODE":"US"},{"CLASSIFICATION_TYPE":"U","OBJECT_ID":"2023-014AR","REF_FRAME":"TEME","RA_OF_ASC_NODE":"8.5806","NORAD_CAT_ID":"55430","REV_AT_EPOCH":"130","MEAN_MOTION_DOT":"-0.01259200","OBJECT_NAME":"STARLINK-5642","ELEMENT_SET_NO":"999","MEAN_ELEMENT_THEORY":"SGP4","MEAN_MOTION":"15.37228631","DECAY_DATE":null,"EPHEMERIS_TYPE":"0","COUNTRY_CODE":"US","PERIOD":"93.675","SITE":"AFWTR","ARG_OF_PERICENTER":"269.7287","TIME_SYSTEM":"UTC","MEAN_ANOMALY":"181.7695","RCS_SIZE":"LARGE","EPOCH":"2023-03-01T22:00:00.999936","CENTER_NAME":"EARTH","FILE":"3848834","SEMIMAJOR_AXIS":"6832.446","GP_ID":"227321930","TLE_LINE1":"1 55430U 23014AR  23060.91667824 -.01259200  00000-0 -38069-1 0  9999","TLE_LINE2":"2 55430  69.9996   8.5806 0003289 269.7287 181.7695 15.37228631  1306","APOAPSIS":"456.558","ECCENTRICITY":"0.00032890","MEAN_MOTION_DDOT":"0.0000000000000","INCLINATION":"69.9996","PERIAPSIS":"452.064","BSTAR":"-0.03806900000000","LAUNCH_DATE":"2023-01-31","OBJECT_TYPE":"PAYLOAD"},{"MEAN_ANOMALY":"117.7456","RCS_SIZE":"LARGE","TIME_SYSTEM":"UTC","ARG_OF_PERICENTER":"242.3456","SITE":"AFWTR","PERIOD":"91.725","COUNTRY_CODE":"US","EPHEMERIS_TYPE":"0","MEAN_MOTION":"15.69916244","DECAY_DATE":null,"MEAN_ELEMENT_THEORY":"SGP4","OBJECT_NAME":"STARLINK-5643","ELEMENT_SET_NO":"999","MEAN_MOTION_DOT":"-0.00001167","REV_AT_EPOCH":"562","OBJECT_ID":"2023-014AS","CLASSIFICATION_TYPE":"U","REF_FRAME":"TEME","RA_OF_ASC_NODE":"9.4660","NORAD_CAT_ID":"55431","LAUNCH_DATE":"2023-01-31","OBJECT_TYPE":"PAYLOAD","PERIAPSIS":"357.258","BSTAR":"-0.00000794290000","INCLINATION":"69.9998","MEAN_MOTION_DDOT":"0.0000000000000","TLE_LINE1":"1 55431U 23014AS  23060.22929448 -.00001167  00000-0 -79429-5 0  9992","APOAPSIS":"361.020","TLE_LINE2":"2 55431  69.9998   9.4660 0002792 242.3456 117.7456 15.69916244  5622","ECCENTRICITY":"0.00027920","GP_ID":"227322681","SEMIMAJOR_AXIS":"6737.274","CENTER_NAME":"EARTH","FILE":"3848834","EPOCH":"2023-03-01T05:30:11.043072"},{"OBJECT_TYPE":"PAYLOAD","LAUNCH_DATE":"2023-01-31","BSTAR":"-0.03928500000000","PERIAPSIS":"454.830","INCLINATION":"70.0000","MEAN_MOTION_DDOT":"0.0000000000000","TLE_LINE2":"2 55432  70.0000   8.6012 0003313 269.8760 163.3950 15.36289538  1304","APOAPSIS":"459.359","ECCENTRICITY":"0.00033130","TLE_LINE1":"1 55432U 23014AT  23060.91667824 -.01260344  00000-0 -39285-1 0  9993","GP_ID":"227322429","SEMIMAJOR_AXIS":"6835.230","FILE":"3848834","CENTER_NAME":"EARTH","EPOCH":"2023-03-01T22:00:00.999936","RCS_SIZE":"LARGE","MEAN_ANOMALY":"163.3950","TIME_SYSTEM":"UTC","SITE":"AFWTR","ARG_OF_PERICENTER":"269.8760","PERIOD":"93.732","COUNTRY_CODE":"US","EPHEMERIS_TYPE":"0","MEAN_MOTION":"15.36289538","DECAY_DATE":null,"MEAN_ELEMENT_THEORY":"SGP4","ELEMENT_SET_NO":"999","OBJECT_NAME":"STARLINK-5637","MEAN_MOTION_DOT":"-0.01260344","REV_AT_EPOCH":"130","NORAD_CAT_ID":"55432","REF_FRAME":"TEME","RA_OF_ASC_NODE":"8.6012","OBJECT_ID":"2023-014AT","CLASSIFICATION_TYPE":"U"},{"FILE":"3848834","CENTER_NAME":"EARTH","EPOCH":"2023-03-01T22:00:00.999936","SEMIMAJOR_AXIS":"6831.723","GP_ID":"227321181","ECCENTRICITY":"0.00032620","TLE_LINE2":"2 55433  70.0002   8.5756 0003262 269.9427 187.0176 15.37472704  1308","APOAPSIS":"455.816","TLE_LINE1":"1 55433U 23014AU  23060.91667824 -.01259771  00000-0 -37787-1 0  9991","MEAN_MOTION_DDOT":"0.0000000000000","INCLINATION":"70.0002","OBJECT_TYPE":"PAYLOAD","LAUNCH_DATE":"2023-01-31","BSTAR":"-0.03778700000000","PERIAPSIS":"451.359","REV_AT_EPOCH":"130","NORAD_CAT_ID":"55433","REF_FRAME":"TEME","RA_OF_ASC_NODE":"8.5756","CLASSIFICATION_TYPE":"U","OBJECT_ID":"2023-014AU","ELEMENT_SET_NO":"999","OBJECT_NAME":"STARLINK-5570","MEAN_MOTION_DOT":"-0.01259771","MEAN_MOTION":"15.37472704","DECAY_DATE":null,"MEAN_ELEMENT_THEORY":"SGP4","EPHEMERIS_TYPE":"0","PERIOD":"93.660","COUNTRY_CODE":"US","ARG_OF_PERICENTER":"269.9427","SITE":"AFWTR","RCS_SIZE":"LARGE","MEAN_ANOMALY":"187.0176","TIME_SYSTEM":"UTC"},{"COUNTRY_CODE":"US","PERIOD":"93.755","SITE":"AFWTR","ARG_OF_PERICENTER":"269.8439","TIME_SYSTEM":"UTC","RCS_SIZE":"LARGE","MEAN_ANOMALY":"152.4211","REF_FRAME":"TEME","NORAD_CAT_ID":"55434","RA_OF_ASC_NODE":"8.6142","CLASSIFICATION_TYPE":"U","OBJECT_ID":"2023-014AV","REV_AT_EPOCH":"130","MEAN_MOTION_DOT":"-0.01259578","ELEMENT_SET_NO":"999","OBJECT_NAME":"STARLINK-5621","MEAN_ELEMENT_THEORY":"SGP4","MEAN_MOTION":"15.35910370","DECAY_DATE":null,"EPHEMERIS_TYPE":"0","MEAN_MOTION_DDOT":"0.0000000000000","INCLINATION":"70.0002","BSTAR":"-0.03974200000000","PERIAPSIS":"455.947","OBJECT_TYPE":"PAYLOAD","LAUNCH_DATE":"2023-01-31","EPOCH":"2023-03-01T22:00:00.999936","FILE":"3848834","CENTER_NAME":"EARTH","SEMIMAJOR_AXIS":"6836.355","GP_ID":"227321431","APOAPSIS":"460.493","TLE_LINE2":"2 55434  70.0002   8.6142 0003325 269.8439 152.4211 15.35910370  1301","ECCENTRICITY":"0.00033250","TLE_LINE1":"1 55434U 23014AV  23060.91667824 -.01259578  00000-0 -39742-1 0  9990"},{"TLE_LINE1":"1 55435U 23014AW  23060.91667824 -.01258229  00000-0 -39434-1 0  9991","TLE_LINE2":"2 55435  70.0002   8.6077 0003316 270.6005 158.1345 15.36114924  1301","APOAPSIS":"459.880","ECCENTRICITY":"0.00033160","GP_ID":"227322182","SEMIMAJOR_AXIS":"6835.748","EPOCH":"2023-03-01T22:00:00.999936","CENTER_NAME":"EARTH","FILE":"3848834","PERIAPSIS":"455.346","BSTAR":"-0.03943400000000","LAUNCH_DATE":"2023-01-31","OBJECT_TYPE":"PAYLOAD","INCLINATION":"70.0002","MEAN_MOTION_DDOT":"0.0000000000000","EPHEMERIS_TYPE":"0","MEAN_ELEMENT_THEORY":"SGP4","MEAN_MOTION":"15.36114924","DECAY_DATE":null,"MEAN_MOTION_DOT":"-0.01258229","OBJECT_NAME":"STARLINK-5626","ELEMENT_SET_NO":"999","CLASSIFICATION_TYPE":"U","OBJECT_ID":"2023-014AW","REF_FRAME":"TEME","RA_OF_ASC_NODE":"8.6077","NORAD_CAT_ID":"55435","REV_AT_EPOCH":"130","TIME_SYSTEM":"UTC","MEAN_ANOMALY":"158.1345","RCS_SIZE":"LARGE","ARG_OF_PERICENTER":"270.6005","SITE":"AFWTR","COUNTRY_CODE":"US","PERIOD":"93.743"},{"RCS_SIZE":"LARGE","MEAN_ANOMALY":"147.9563","TIME_SYSTEM":"UTC","ARG_OF_PERICENTER":"269.8790","SITE":"AFWTR","PERIOD":"93.766","COUNTRY_CODE":"US","EPHEMERIS_TYPE":"0","DECAY_DATE":null,"MEAN_MOTION":"15.35744903","MEAN_ELEMENT_THEORY":"SGP4","ELEMENT_SET_NO":"999","OBJECT_NAME":"STARLINK-5640","MEAN_MOTION_DOT":"-0.01256496","REV_AT_EPOCH":"130","NORAD_CAT_ID":"55436","RA_OF_ASC_NODE":"8.6197","REF_FRAME":"TEME","CLASSIFICATION_TYPE":"U","OBJECT_ID":"2023-014AX","OBJECT_TYPE":"PAYLOAD","LAUNCH_DATE":"2023-01-31","BSTAR":"-0.03984600000000","PERIAPSIS":"456.405","INCLINATION":"70.0002","MEAN_MOTION_DDOT":"0.0000000000000","TLE_LINE2":"2 55436  70.0002   8.6197 0003373 269.8790 147.9563 15.35744903  1302","APOAPSIS":"461.017","ECCENTRICITY":"0.00033730","TLE_LINE1":"1 55436U 23014AX  23060.91667824 -.01256496  00000-0 -39846-1 0  9993","GP_ID":"227322929","SEMIMAJOR_AXIS":"6836.846","FILE":"3848834","CENTER_NAME":"EARTH","EPOCH":"2023-03-01T22:00:00.999936"}];
